[{"OBJECT_NAME":"GALAXY 31 (G-31)","OBJECT_ID":"2022-153A","EPOCH":"2026-04-27T03:46:38.623872","MEAN_MOTION":1.00273195,"ECCENTRICITY":0.00013755,"INCLINATION":0.0116,"RA_OF_ASC_NODE":240.8779,"ARG_OF_PERICENTER":155.607,"MEAN_ANOMALY":114.3178,"EPHEMERIS_TYPE":0,"CLASSIFICATION_TYPE":"U","NORAD_CAT_ID":54243,"ELEMENT_SET_NO":999,"REV_AT_EPOCH":662,"BSTAR":0,"MEAN_MOTION_DOT":3.0e-8,"MEAN_MOTION_DDOT":0},{"OBJECT_NAME":"GALAXY 32 (G-32)","OBJECT_ID":"2022-153B","EPOCH":"2026-04-27T04:37:14.044224","MEAN_MOTION":1.00271683,"ECCENTRICITY":0.00029022,"INCLINATION":0.0172,"RA_OF_ASC_NODE":282.7305,"ARG_OF_PERICENTER":101.2564,"MEAN_ANOMALY":169.502,"EPHEMERIS_TYPE":0,"CLASSIFICATION_TYPE":"U","NORAD_CAT_ID":54244,"ELEMENT_SET_NO":999,"REV_AT_EPOCH":1263,"BSTAR":0,"MEAN_MOTION_DOT":-1.84e-6,"MEAN_MOTION_DDOT":0},{"OBJECT_NAME":"GALAXY 35 (G-35)","OBJECT_ID":"2022-170A","EPOCH":"2026-04-27T05:56:23.579232","MEAN_MOTION":1.00271682,"ECCENTRICITY":0.0002027,"INCLINATION":0.0367,"RA_OF_ASC_NODE":92.1483,"ARG_OF_PERICENTER":303.865,"MEAN_ANOMALY":175.2078,"EPHEMERIS_TYPE":0,"CLASSIFICATION_TYPE":"U","NORAD_CAT_ID":54741,"ELEMENT_SET_NO":999,"REV_AT_EPOCH":1238,"BSTAR":0,"MEAN_MOTION_DOT":-1.72e-6,"MEAN_MOTION_DDOT":0},{"OBJECT_NAME":"GALAXY 36 (G-36)","OBJECT_ID":"2022-170B","EPOCH":"2026-04-27T05:44:31.005600","MEAN_MOTION":1.00271478,"ECCENTRICITY":0.000278,"INCLINATION":0.0124,"RA_OF_ASC_NODE":191.237,"ARG_OF_PERICENTER":233.9286,"MEAN_ANOMALY":147.192,"EPHEMERIS_TYPE":0,"CLASSIFICATION_TYPE":"U","NORAD_CAT_ID":54742,"ELEMENT_SET_NO":999,"REV_AT_EPOCH":1226,"BSTAR":0,"MEAN_MOTION_DOT":-1.95e-6,"MEAN_MOTION_DDOT":0},{"OBJECT_NAME":"GALAXY 37 (G-37)","OBJECT_ID":"2023-112A","EPOCH":"2026-04-27T03:54:38.810016","MEAN_MOTION":1.00270413,"ECCENTRICITY":0.00022239,"INCLINATION":0.0126,"RA_OF_ASC_NODE":245.2489,"ARG_OF_PERICENTER":150.0018,"MEAN_ANOMALY":111.5676,"EPHEMERIS_TYPE":0,"CLASSIFICATION_TYPE":"U","NORAD_CAT_ID":57493,"ELEMENT_SET_NO":999,"REV_AT_EPOCH":1003,"BSTAR":0,"MEAN_MOTION_DOT":0,"MEAN_MOTION_DDOT":0}]
