GALAXY 31 (G-31)        
1 54243U 22153A   26117.15739148  .00000003  00000+0  00000+0 0  9997
2 54243   0.0116 240.8779 0001375 155.6070 114.3178  1.00273195  6622
GALAXY 32 (G-32)        
1 54244U 22153B   26117.19252366 -.00000184  00000+0  00000+0 0  9995
2 54244   0.0172 282.7305 0002902 101.2564 169.5020  1.00271683 12633
GALAXY 35 (G-35)        
1 54741U 22170A   26117.24749513 -.00000172  00000+0  00000+0 0  9994
2 54741   0.0367  92.1483 0002027 303.8650 175.2078  1.00271682 12383
GALAXY 36 (G-36)        
1 54742U 22170B   26117.23924775 -.00000195  00000+0  00000+0 0  9994
2 54742   0.0124 191.2370 0002780 233.9286 147.1920  1.00271478 12269
GALAXY 37 (G-37)        
1 57493U 23112A   26117.16294919  .00000000  00000+0  00000+0 0  9993
2 57493   0.0126 245.2489 0002223 150.0018 111.5676  1.00270413 10036
